{
    "links": {
        "self": "http://www.neowsapp.com/rest/v1/neo/3183855?api_key=iIulBulltgU6a56xZRHN4H3l9WmuAYTsLGpBGhQ2"
    },
    "id": "3183855",
    "neo_reference_id": "3183855",
    "name": "(2004 LA10)",
    "designation": "2004 LA10",
    "nasa_jpl_url": "http://ssd.jpl.nasa.gov/sbdb.cgi?sstr=3183855",
    "absolute_magnitude_h": 25.1,
    "estimated_diameter": {
        "kilometers": {
            "estimated_diameter_min": 0.0253837029,
            "estimated_diameter_max": 0.0567596853
        },
        "meters": {
            "estimated_diameter_min": 25.3837029364,
            "estimated_diameter_max": 56.7596852866
        },
        "miles": {
            "estimated_diameter_min": 0.0157726969,
            "estimated_diameter_max": 0.0352688224
        },
        "feet": {
            "estimated_diameter_min": 83.279867942,
            "estimated_diameter_max": 186.2194458756
        }
    },
    "is_potentially_hazardous_asteroid": false,
    "close_approach_data": [
        {
            "close_approach_date": "2004-06-24",
            "close_approach_date_full": "2004-Jun-24 02:04",
            "epoch_date_close_approach": 1088042640000,
            "relative_velocity": {
                "kilometers_per_second": "7.546272794",
                "kilometers_per_hour": "27166.5820582395",
                "miles_per_hour": "16880.2576127989"
            },
            "miss_distance": {
                "astronomical": "0.034906253",
                "lunar": "13.578532417",
                "kilometers": "5221901.09848111",
                "miles": "3244738.882054918"
            },
            "orbiting_body": "Earth"
        }
    ],
    "orbital_data": {
        "orbit_id": "15",
        "orbit_determination_date": "2020-11-11 15:51:06",
        "first_observation_date": "2004-06-14",
        "last_observation_date": "2004-06-28",
        "data_arc_in_days": 14,
        "observations_used": 55,
        "orbit_uncertainty": "8",
        "minimum_orbit_intersection": ".029864",
        "jupiter_tisserand_invariant": "3.210",
        "epoch_osculation": "2453174.5",
        "eccentricity": ".5820299232246993",
        "semi_major_axis": "2.498103836159214",
        "inclination": "1.055380873080921",
        "ascending_node_longitude": "140.0413984041568",
        "orbital_period": "1442.162359639379",
        "perihelion_distance": "1.04413265219214",
        "perihelion_argument": "140.4279988308598",
        "aphelion_distance": "3.952075020126288",
        "perihelion_time": "2453186.700830845109",
        "mean_anomaly": "356.95436573082",
        "mean_motion": ".2496251532247868",
        "equinox": "J2000",
        "orbit_class": {
            "orbit_class_type": "AMO",
            "orbit_class_description": "Near-Earth asteroid orbits similar to that of 1221 Amor",
            "orbit_class_range": "1.017 AU < q (perihelion) < 1.3 AU"
        }
    },
    "is_sentry_object": false
}